[{"OBJECT_NAME":"FLOCK 4G-10","OBJECT_ID":"2025-009BP","EPOCH":"2026-03-09T16:59:55.292640","MEAN_MOTION":15.27155944,"ECCENTRICITY":0.00034694,"INCLINATION":97.3967,"RA_OF_ASC_NODE":150.5883,"ARG_OF_PERICENTER":341.4844,"MEAN_ANOMALY":18.6269,"EPHEMERIS_TYPE":0,"CLASSIFICATION_TYPE":"U","NORAD_CAT_ID":62670,"ELEMENT_SET_NO":999,"REV_AT_EPOCH":12134,"BSTAR":0.00052624432,"MEAN_MOTION_DOT":0.00013952,"MEAN_MOTION_DDOT":0},{"OBJECT_NAME":"STARLINK-35836","OBJECT_ID":"2025-268Q","EPOCH":"2026-03-09T03:44:48.855264","MEAN_MOTION":15.27581175,"ECCENTRICITY":0.00017917,"INCLINATION":43.0058,"RA_OF_ASC_NODE":350.4695,"ARG_OF_PERICENTER":280.5587,"MEAN_ANOMALY":79.5063,"EPHEMERIS_TYPE":0,"CLASSIFICATION_TYPE":"U","NORAD_CAT_ID":66571,"ELEMENT_SET_NO":999,"REV_AT_EPOCH":1787,"BSTAR":0.0014684218,"MEAN_MOTION_DOT":0.00040369,"MEAN_MOTION_DDOT":0}]
